STARLINK-34914          
1 65203U 25176F   25360.61210679  .00038489  00000+0  13046-2 0  9992
2 65203  53.1593 132.0479 0001148  77.4435 282.6694 15.30209219 21938
STARLINK-34787          
1 65204U 25176G   25360.59838997  .00027305  00000+0  93009-3 0  9992
2 65204  53.1566 131.9586 0001301  90.3417 269.7733 15.30219181 21930
STARLINK-34796          
1 65205U 25176H   25360.52157960  .00019434  00000+0  66665-3 0  9992
2 65205  53.1567 132.9023 0000883  64.0318 296.0773 15.30195665 21916
STARLINK-34763          
1 65206U 25176J   25360.60788583  .00038623  00000+0  13080-2 0  9996
2 65206  53.1581 132.0184 0001634 106.2534 253.8647 15.30233484 21920
STARLINK-34901          
1 65207U 25176K   25359.55970507  .00030270  00000+0  10302-2 0  9992
2 65207  53.1581 136.8535 0001238  84.6560 275.4582 15.30194417 21774
STARLINK-34841          
1 65208U 25176L   25360.56579080  .00030159  00000+0  10259-2 0  9994
2 65208  53.1607 132.4709 0001026  61.5154 298.5950 15.30211777 21928
STARLINK-34976          
1 65209U 25176M   25360.52052439  .00032019  00000+0  10882-2 0  9994
2 65209  53.1574 132.8933 0001321 105.5188 254.5959 15.30209904 21918
STARLINK-34941          
1 65210U 25176N   25360.60578100  .00022914  00000+0  78297-3 0  9991
2 65210  53.1576 132.0031 0002408  47.5622 312.5582 15.30216888 21936
STARLINK-34847          
1 65211U 25176P   25359.64507397  .00052656  00000+0  17768-2 0  9995
2 65211  53.1608 136.6789 0001966  40.9748 319.1400 15.30210719 21789
STARLINK-34897          
1 65212U 25176Q   25360.57739976  .00032179  00000+0  10936-2 0  9998
2 65212  53.1588 132.5415 0001453  60.1716 299.9429 15.30208820 21920
STARLINK-34907          
1 65213U 25176R   25360.56156465  .00024876  00000+0  84965-3 0  9993
2 65213  53.1613 132.4387 0000874  29.7187 330.3863 15.30182878 21922
STARLINK-34511          
1 65214U 25176S   25360.59533760  .00037883  00000+0  12836-2 0  9993
2 65214  53.1569 132.6511 0001046  57.2131 302.8971 15.30227363 21867
STARLINK-33913          
1 65215U 25176T   25360.58320232  .00045180  00000+0  15271-2 0  9996
2 65215  53.1594 134.7032 0001081  84.9467 275.1658 15.30226465 21894
STARLINK-34302          
1 65216U 25176U   25360.58161776  .00032047  00000+0  10892-2 0  9995
2 65216  53.1594 132.5585 0001013  98.3328 261.7787 15.30208922 21920
STARLINK-34871          
1 65217U 25176V   25360.59733485  .00028372  00000+0  96587-3 0  9991
2 65217  53.1568 131.9531 0000919  60.2148 299.8944 15.30217551 21934
STARLINK-34833          
1 65218U 25176W   25359.78412096  .00028649  00000+0  97539-3 0  9998
2 65218  53.1617 136.1194 0001008  81.6472 278.4643 15.30209478 21803
