[{"OBJECT_NAME":"STARLINK-34914","OBJECT_ID":"2025-176F","EPOCH":"2025-12-26T14:41:26.026656","MEAN_MOTION":15.30209219,"ECCENTRICITY":0.00011486,"INCLINATION":53.1593,"RA_OF_ASC_NODE":132.0479,"ARG_OF_PERICENTER":77.4435,"MEAN_ANOMALY":282.6694,"EPHEMERIS_TYPE":0,"CLASSIFICATION_TYPE":"U","NORAD_CAT_ID":65203,"ELEMENT_SET_NO":999,"REV_AT_EPOCH":2193,"BSTAR":0.0013045582,"MEAN_MOTION_DOT":0.00038489,"MEAN_MOTION_DDOT":0},{"OBJECT_NAME":"STARLINK-34787","OBJECT_ID":"2025-176G","EPOCH":"2025-12-26T14:21:40.893408","MEAN_MOTION":15.30219181,"ECCENTRICITY":0.00013011,"INCLINATION":53.1566,"RA_OF_ASC_NODE":131.9586,"ARG_OF_PERICENTER":90.3417,"MEAN_ANOMALY":269.7733,"EPHEMERIS_TYPE":0,"CLASSIFICATION_TYPE":"U","NORAD_CAT_ID":65204,"ELEMENT_SET_NO":999,"REV_AT_EPOCH":2193,"BSTAR":0.00093009413,"MEAN_MOTION_DOT":0.00027305,"MEAN_MOTION_DDOT":0},{"OBJECT_NAME":"STARLINK-34796","OBJECT_ID":"2025-176H","EPOCH":"2025-12-26T12:31:04.477440","MEAN_MOTION":15.30195665,"ECCENTRICITY":8.831e-5,"INCLINATION":53.1567,"RA_OF_ASC_NODE":132.9023,"ARG_OF_PERICENTER":64.0318,"MEAN_ANOMALY":296.0773,"EPHEMERIS_TYPE":0,"CLASSIFICATION_TYPE":"U","NORAD_CAT_ID":65205,"ELEMENT_SET_NO":999,"REV_AT_EPOCH":2191,"BSTAR":0.00066665244,"MEAN_MOTION_DOT":0.00019434,"MEAN_MOTION_DDOT":0},{"OBJECT_NAME":"STARLINK-34763","OBJECT_ID":"2025-176J","EPOCH":"2025-12-26T14:35:21.335712","MEAN_MOTION":15.30233484,"ECCENTRICITY":0.00016343,"INCLINATION":53.1581,"RA_OF_ASC_NODE":132.0184,"ARG_OF_PERICENTER":106.2534,"MEAN_ANOMALY":253.8647,"EPHEMERIS_TYPE":0,"CLASSIFICATION_TYPE":"U","NORAD_CAT_ID":65206,"ELEMENT_SET_NO":999,"REV_AT_EPOCH":2192,"BSTAR":0.0013080473,"MEAN_MOTION_DOT":0.00038623,"MEAN_MOTION_DDOT":0},{"OBJECT_NAME":"STARLINK-34901","OBJECT_ID":"2025-176K","EPOCH":"2025-12-25T13:25:58.518048","MEAN_MOTION":15.30194417,"ECCENTRICITY":0.0001238,"INCLINATION":53.1581,"RA_OF_ASC_NODE":136.8535,"ARG_OF_PERICENTER":84.656,"MEAN_ANOMALY":275.4582,"EPHEMERIS_TYPE":0,"CLASSIFICATION_TYPE":"U","NORAD_CAT_ID":65207,"ELEMENT_SET_NO":999,"REV_AT_EPOCH":2177,"BSTAR":0.0010302,"MEAN_MOTION_DOT":0.0003027,"MEAN_MOTION_DDOT":0},{"OBJECT_NAME":"STARLINK-34841","OBJECT_ID":"2025-176L","EPOCH":"2025-12-26T13:34:44.325120","MEAN_MOTION":15.30211777,"ECCENTRICITY":0.0001026,"INCLINATION":53.1607,"RA_OF_ASC_NODE":132.4709,"ARG_OF_PERICENTER":61.5154,"MEAN_ANOMALY":298.595,"EPHEMERIS_TYPE":0,"CLASSIFICATION_TYPE":"U","NORAD_CAT_ID":65208,"ELEMENT_SET_NO":999,"REV_AT_EPOCH":2192,"BSTAR":0.0010258817,"MEAN_MOTION_DOT":0.00030159,"MEAN_MOTION_DDOT":0},{"OBJECT_NAME":"STARLINK-34976","OBJECT_ID":"2025-176M","EPOCH":"2025-12-26T12:29:33.307296","MEAN_MOTION":15.30209904,"ECCENTRICITY":0.00013217,"INCLINATION":53.1574,"RA_OF_ASC_NODE":132.8933,"ARG_OF_PERICENTER":105.5188,"MEAN_ANOMALY":254.5959,"EPHEMERIS_TYPE":0,"CLASSIFICATION_TYPE":"U","NORAD_CAT_ID":65209,"ELEMENT_SET_NO":999,"REV_AT_EPOCH":2191,"BSTAR":0.0010882124,"MEAN_MOTION_DOT":0.00032019,"MEAN_MOTION_DDOT":0},{"OBJECT_NAME":"STARLINK-34941","OBJECT_ID":"2025-176N","EPOCH":"2025-12-26T14:32:19.478400","MEAN_MOTION":15.30216888,"ECCENTRICITY":0.0002408,"INCLINATION":53.1576,"RA_OF_ASC_NODE":132.0031,"ARG_OF_PERICENTER":47.5622,"MEAN_ANOMALY":312.5582,"EPHEMERIS_TYPE":0,"CLASSIFICATION_TYPE":"U","NORAD_CAT_ID":65210,"ELEMENT_SET_NO":999,"REV_AT_EPOCH":2193,"BSTAR":0.00078296924,"MEAN_MOTION_DOT":0.00022914,"MEAN_MOTION_DDOT":0},{"OBJECT_NAME":"STARLINK-34847","OBJECT_ID":"2025-176P","EPOCH":"2025-12-25T15:28:54.391008","MEAN_MOTION":15.30210719,"ECCENTRICITY":0.0001966,"INCLINATION":53.1608,"RA_OF_ASC_NODE":136.6789,"ARG_OF_PERICENTER":40.9748,"MEAN_ANOMALY":319.14,"EPHEMERIS_TYPE":0,"CLASSIFICATION_TYPE":"U","NORAD_CAT_ID":65211,"ELEMENT_SET_NO":999,"REV_AT_EPOCH":2178,"BSTAR":0.0017768,"MEAN_MOTION_DOT":0.00052656,"MEAN_MOTION_DDOT":0},{"OBJECT_NAME":"STARLINK-34897","OBJECT_ID":"2025-176Q","EPOCH":"2025-12-26T13:51:27.339264","MEAN_MOTION":15.3020882,"ECCENTRICITY":0.00014539,"INCLINATION":53.1588,"RA_OF_ASC_NODE":132.5415,"ARG_OF_PERICENTER":60.1716,"MEAN_ANOMALY":299.9429,"EPHEMERIS_TYPE":0,"CLASSIFICATION_TYPE":"U","NORAD_CAT_ID":65212,"ELEMENT_SET_NO":999,"REV_AT_EPOCH":2192,"BSTAR":0.0010935795,"MEAN_MOTION_DOT":0.00032179,"MEAN_MOTION_DDOT":0},{"OBJECT_NAME":"STARLINK-34907","OBJECT_ID":"2025-176R","EPOCH":"2025-12-26T13:28:39.185760","MEAN_MOTION":15.30182878,"ECCENTRICITY":8.743e-5,"INCLINATION":53.1613,"RA_OF_ASC_NODE":132.4387,"ARG_OF_PERICENTER":29.7187,"MEAN_ANOMALY":330.3863,"EPHEMERIS_TYPE":0,"CLASSIFICATION_TYPE":"U","NORAD_CAT_ID":65213,"ELEMENT_SET_NO":999,"REV_AT_EPOCH":2192,"BSTAR":0.00084964817,"MEAN_MOTION_DOT":0.00024876,"MEAN_MOTION_DDOT":0},{"OBJECT_NAME":"STARLINK-34511","OBJECT_ID":"2025-176S","EPOCH":"2025-12-26T14:17:17.168640","MEAN_MOTION":15.30227363,"ECCENTRICITY":0.00010461,"INCLINATION":53.1569,"RA_OF_ASC_NODE":132.6511,"ARG_OF_PERICENTER":57.2131,"MEAN_ANOMALY":302.8971,"EPHEMERIS_TYPE":0,"CLASSIFICATION_TYPE":"U","NORAD_CAT_ID":65214,"ELEMENT_SET_NO":999,"REV_AT_EPOCH":2186,"BSTAR":0.0012835727,"MEAN_MOTION_DOT":0.00037883,"MEAN_MOTION_DDOT":0},{"OBJECT_NAME":"STARLINK-33913","OBJECT_ID":"2025-176T","EPOCH":"2025-12-26T13:59:48.680448","MEAN_MOTION":15.30226465,"ECCENTRICITY":0.00010815,"INCLINATION":53.1594,"RA_OF_ASC_NODE":134.7032,"ARG_OF_PERICENTER":84.9467,"MEAN_ANOMALY":275.1658,"EPHEMERIS_TYPE":0,"CLASSIFICATION_TYPE":"U","NORAD_CAT_ID":65215,"ELEMENT_SET_NO":999,"REV_AT_EPOCH":2189,"BSTAR":0.0015270517,"MEAN_MOTION_DOT":0.0004518,"MEAN_MOTION_DDOT":0},{"OBJECT_NAME":"STARLINK-34302","OBJECT_ID":"2025-176U","EPOCH":"2025-12-26T13:57:31.774464","MEAN_MOTION":15.30208922,"ECCENTRICITY":0.00010134,"INCLINATION":53.1594,"RA_OF_ASC_NODE":132.5585,"ARG_OF_PERICENTER":98.3328,"MEAN_ANOMALY":261.7787,"EPHEMERIS_TYPE":0,"CLASSIFICATION_TYPE":"U","NORAD_CAT_ID":65216,"ELEMENT_SET_NO":999,"REV_AT_EPOCH":2192,"BSTAR":0.0010891863,"MEAN_MOTION_DOT":0.00032047,"MEAN_MOTION_DDOT":0},{"OBJECT_NAME":"STARLINK-34871","OBJECT_ID":"2025-176V","EPOCH":"2025-12-26T14:20:09.731040","MEAN_MOTION":15.30217551,"ECCENTRICITY":9.198e-5,"INCLINATION":53.1568,"RA_OF_ASC_NODE":131.9531,"ARG_OF_PERICENTER":60.2148,"MEAN_ANOMALY":299.8944,"EPHEMERIS_TYPE":0,"CLASSIFICATION_TYPE":"U","NORAD_CAT_ID":65217,"ELEMENT_SET_NO":999,"REV_AT_EPOCH":2193,"BSTAR":0.00096587117,"MEAN_MOTION_DOT":0.00028372,"MEAN_MOTION_DDOT":0},{"OBJECT_NAME":"STARLINK-34833","OBJECT_ID":"2025-176W","EPOCH":"2025-12-25T18:49:08.050944","MEAN_MOTION":15.30209478,"ECCENTRICITY":0.00010088,"INCLINATION":53.1617,"RA_OF_ASC_NODE":136.1194,"ARG_OF_PERICENTER":81.6472,"MEAN_ANOMALY":278.4643,"EPHEMERIS_TYPE":0,"CLASSIFICATION_TYPE":"U","NORAD_CAT_ID":65218,"ELEMENT_SET_NO":999,"REV_AT_EPOCH":2180,"BSTAR":0.00097538904,"MEAN_MOTION_DOT":0.00028649,"MEAN_MOTION_DDOT":0}]
